{
    "links": {
        "self": "http://www.neowsapp.com/rest/v1/neo/3739260?api_key=iIulBulltgU6a56xZRHN4H3l9WmuAYTsLGpBGhQ2"
    },
    "id": "3739260",
    "neo_reference_id": "3739260",
    "name": "(2016 AL9)",
    "designation": "2016 AL9",
    "nasa_jpl_url": "http://ssd.jpl.nasa.gov/sbdb.cgi?sstr=3739260",
    "absolute_magnitude_h": 24.6,
    "estimated_diameter": {
        "kilometers": {
            "estimated_diameter_min": 0.0319561887,
            "estimated_diameter_max": 0.0714562102
        },
        "meters": {
            "estimated_diameter_min": 31.9561886721,
            "estimated_diameter_max": 71.4562101727
        },
        "miles": {
            "estimated_diameter_min": 0.0198566489,
            "estimated_diameter_max": 0.0444008168
        },
        "feet": {
            "estimated_diameter_min": 104.8431420431,
            "estimated_diameter_max": 234.436392583
        }
    },
    "is_potentially_hazardous_asteroid": false,
    "close_approach_data": [
        {
            "close_approach_date": "2010-01-18",
            "close_approach_date_full": "2010-Jan-18 07:00",
            "epoch_date_close_approach": 1263798000000,
            "relative_velocity": {
                "kilometers_per_second": "13.0234323848",
                "kilometers_per_hour": "46884.3565851749",
                "miles_per_hour": "29132.1159014938"
            },
            "miss_distance": {
                "astronomical": "0.4552676692",
                "lunar": "177.0991233188",
                "kilometers": "68107073.592184604",
                "miles": "42319773.1362273752"
            },
            "orbiting_body": "Earth"
        },
        {
            "close_approach_date": "2013-01-09",
            "close_approach_date_full": "2013-Jan-09 22:41",
            "epoch_date_close_approach": 1357771260000,
            "relative_velocity": {
                "kilometers_per_second": "7.5557139308",
                "kilometers_per_hour": "27200.5701509103",
                "miles_per_hour": "16901.3764918254"
            },
            "miss_distance": {
                "astronomical": "0.2238277645",
                "lunar": "87.0690003905",
                "kilometers": "33484156.816061615",
                "miles": "20806090.254275687"
            },
            "orbiting_body": "Earth"
        },
        {
            "close_approach_date": "2016-01-03",
            "close_approach_date_full": "2016-Jan-03 22:26",
            "epoch_date_close_approach": 1451859960000,
            "relative_velocity": {
                "kilometers_per_second": "5.781213006",
                "kilometers_per_hour": "20812.3668215224",
                "miles_per_hour": "12931.9953730732"
            },
            "miss_distance": {
                "astronomical": "0.1603217493",
                "lunar": "62.3651604777",
                "kilometers": "23983792.209953991",
                "miles": "14902837.4255114358"
            },
            "orbiting_body": "Earth"
        },
        {
            "close_approach_date": "2018-12-27",
            "close_approach_date_full": "2018-Dec-27 22:59",
            "epoch_date_close_approach": 1545951540000,
            "relative_velocity": {
                "kilometers_per_second": "9.5814869081",
                "kilometers_per_hour": "34493.3528691095",
                "miles_per_hour": "21432.8280646975"
            },
            "miss_distance": {
                "astronomical": "0.3636119802",
                "lunar": "141.4450602978",
                "kilometers": "54395577.744402174",
                "miles": "33799844.6907470412"
            },
            "orbiting_body": "Earth"
        }
    ],
    "orbital_data": {
        "orbit_id": "9",
        "orbit_determination_date": "2017-04-06 08:29:24",
        "first_observation_date": "2016-01-03",
        "last_observation_date": "2016-02-08",
        "data_arc_in_days": 36,
        "observations_used": 31,
        "orbit_uncertainty": "6",
        "minimum_orbit_intersection": ".145278",
        "jupiter_tisserand_invariant": "3.633",
        "epoch_osculation": "2459000.5",
        "eccentricity": ".4540627310364423",
        "semi_major_axis": "2.06395612420734",
        "inclination": "7.917761760949722",
        "ascending_node_longitude": "291.7764406633178",
        "orbital_period": "1083.051524574243",
        "perihelion_distance": "1.126790569710364",
        "perihelion_argument": "169.8111598804521",
        "aphelion_distance": "3.001121678704315",
        "perihelion_time": "2458467.968023709641",
        "mean_anomaly": "177.0105180728986",
        "mean_motion": ".3323941583864343",
        "equinox": "J2000",
        "orbit_class": {
            "orbit_class_type": "AMO",
            "orbit_class_description": "Near-Earth asteroid orbits similar to that of 1221 Amor",
            "orbit_class_range": "1.017 AU < q (perihelion) < 1.3 AU"
        }
    },
    "is_sentry_object": false
}